{
  "type": "FeatureCollection",
  "features": [
    {
      "type": "Feature",
      "properties": {
        "norad_id": 31451,
        "name": "FENGYUN 1C DEB",
        "group": "fengyun-1c-debris",
        "lat": 21.452606561226258,
        "lon": -157.94349786095427,
        "alt_km": 844.2882805542586,
        "timestamp": "2025-12-02T07:10:09.397820+00:00",
        "meta_object_name": "FENGYUN 1C DEB",
        "meta_object_id": "1999-025BUP",
        "meta_epoch": "2025-11-30T21:18:19.668960",
        "meta_mean_motion": 14.13598001,
        "meta_eccentricity": 0.00307088,
        "meta_inclination": 98.765,
        "meta_ra_of_asc_node": 17.1982,
        "meta_arg_of_pericenter": 245.7629,
        "meta_mean_anomaly": 296.2994,
        "meta_ephemeris_type": 0,
        "meta_classification_type": "U",
        "meta_norad_cat_id": 31451,
        "meta_element_set_no": 999,
        "meta_rev_at_epoch": 95842,
        "meta_bstar": 0.00040259343,
        "meta_mean_motion_dot": 7.19e-06,
        "meta_mean_motion_ddot": 0,
        "tle_line1": "1 31451U 99025BUP 25334.88772765  .00000719  00000+0  40259-3 0  9995",
        "tle_line2": "2 31451  98.7650  17.1982 0030708 245.7629 296.2994 14.13598001958423"
      },
      "geometry": {
        "type": "Point",
        "coordinates": [
          -157.94349786095427,
          21.452606561226258
        ]
      }
    },
    {
      "type": "Feature",
      "properties": {
        "norad_id": 31452,
        "name": "FENGYUN 1C DEB",
        "group": "fengyun-1c-debris",
        "lat": -2.27569509661955,
        "lon": -36.10495698404748,
        "alt_km": 872.1709615915042,
        "timestamp": "2025-12-02T07:10:09.397829+00:00",
        "meta_object_name": "FENGYUN 1C DEB",
        "meta_object_id": "1999-025BUQ",
        "meta_epoch": "2025-11-27T16:52:52.737888",
        "meta_mean_motion": 14.15136365,
        "meta_eccentricity": 0.00400936,
        "meta_inclination": 98.6579,
        "meta_ra_of_asc_node": 319.0885,
        "meta_arg_of_pericenter": 170.6904,
        "meta_mean_anomaly": 189.5022,
        "meta_ephemeris_type": 0,
        "meta_classification_type": "U",
        "meta_norad_cat_id": 31452,
        "meta_element_set_no": 999,
        "meta_rev_at_epoch": 95993,
        "meta_bstar": 0.00039254948,
        "meta_mean_motion_dot": 7.25e-06,
        "meta_mean_motion_ddot": 0,
        "tle_line1": "1 31452U 99025BUQ 25331.70338817  .00000725  00000+0  39255-3 0  9991",
        "tle_line2": "2 31452  98.6579 319.0885 0040093 170.6904 189.5022 14.15136365959935"
      },
      "geometry": {
        "type": "Point",
        "coordinates": [
          -36.10495698404748,
          -2.27569509661955
        ]
      }
    },
    {
      "type": "Feature",
      "properties": {
        "norad_id": 31455,
        "name": "FENGYUN 1C DEB",
        "group": "fengyun-1c-debris",
        "lat": 60.24521464312412,
        "lon": 160.28852924217892,
        "alt_km": 722.0109892152095,
        "timestamp": "2025-12-02T07:10:09.397841+00:00",
        "meta_object_name": "FENGYUN 1C DEB",
        "meta_object_id": "1999-025BUT",
        "meta_epoch": "2025-12-01T05:06:27.684288",
        "meta_mean_motion": 14.11407074,
        "meta_eccentricity": 0.0218887,
        "meta_inclination": 98.5737,
        "meta_ra_of_asc_node": 323.9486,
        "meta_arg_of_pericenter": 84.0104,
        "meta_mean_anomaly": 278.5966,
        "meta_ephemeris_type": 0,
        "meta_classification_type": "U",
        "meta_norad_cat_id": 31455,
        "meta_element_set_no": 999,
        "meta_rev_at_epoch": 95941,
        "meta_bstar": 0.00026567,
        "meta_mean_motion_dot": 5.62e-06,
        "meta_mean_motion_ddot": 0,
        "tle_line1": "1 31455U 99025BUT 25335.21282042  .00000562  00000+0  26567-3 0  9993",
        "tle_line2": "2 31455  98.5737 323.9486 0218887  84.0104 278.5966 14.11407074959415"
      },
      "geometry": {
        "type": "Point",
        "coordinates": [
          160.28852924217892,
          60.24521464312412
        ]
      }
    },
    {
      "type": "Feature",
      "properties": {
        "norad_id": 31456,
        "name": "FENGYUN 1C DEB",
        "group": "fengyun-1c-debris",
        "lat": 18.07425292035934,
        "lon": 75.7630184272374,
        "alt_km": 710.2355527015197,
        "timestamp": "2025-12-02T07:10:09.397851+00:00",
        "meta_object_name": "FENGYUN 1C DEB",
        "meta_object_id": "1999-025BUU",
        "meta_epoch": "2025-12-01T12:46:16.695552",
        "meta_mean_motion": 14.42301332,
        "meta_eccentricity": 0.00678284,
        "meta_inclination": 98.5781,
        "meta_ra_of_asc_node": 77.816,
        "meta_arg_of_pericenter": 348.4269,
        "meta_mean_anomaly": 11.5358,
        "meta_ephemeris_type": 0,
        "meta_classification_type": "U",
        "meta_norad_cat_id": 31456,
        "meta_element_set_no": 999,
        "meta_rev_at_epoch": 97305,
        "meta_bstar": 0.00080227123,
        "meta_mean_motion_dot": 2.676e-05,
        "meta_mean_motion_ddot": 0,
        "tle_line1": "1 31456U 99025BUU 25335.53213768  .00002676  00000+0  80227-3 0  9999",
        "tle_line2": "2 31456  98.5781  77.8160 0067828 348.4269  11.5358 14.42301332973055"
      },
      "geometry": {
        "type": "Point",
        "coordinates": [
          75.7630184272374,
          18.07425292035934
        ]
      }
    },
    {
      "type": "Feature",
      "properties": {
        "norad_id": 31459,
        "name": "FENGYUN 1C DEB",
        "group": "fengyun-1c-debris",
        "lat": -77.28106470844185,
        "lon": 25.417920129889684,
        "alt_km": 759.7732528156666,
        "timestamp": "2025-12-02T07:10:09.397861+00:00",
        "meta_object_name": "FENGYUN 1C DEB",
        "meta_object_id": "1999-025BUX",
        "meta_epoch": "2025-11-29T11:26:52.184832",
        "meta_mean_motion": 14.4388821,
        "meta_eccentricity": 0.00932651,
        "meta_inclination": 98.1728,
        "meta_ra_of_asc_node": 242.2547,
        "meta_arg_of_pericenter": 172.3319,
        "meta_mean_anomaly": 187.9324,
        "meta_ephemeris_type": 0,
        "meta_classification_type": "U",
        "meta_norad_cat_id": 31459,
        "meta_element_set_no": 999,
        "meta_rev_at_epoch": 64366,
        "meta_bstar": 0.0012379846,
        "meta_mean_motion_dot": 4.409e-05,
        "meta_mean_motion_ddot": 0,
        "tle_line1": "1 31459U 99025BUX 25333.47699288  .00004409  00000+0  12380-2 0  9998",
        "tle_line2": "2 31459  98.1728 242.2547 0093265 172.3319 187.9324 14.43888210643664"
      },
      "geometry": {
        "type": "Point",
        "coordinates": [
          25.417920129889684,
          -77.28106470844185
        ]
      }
    },
    {
      "type": "Feature",
      "properties": {
        "norad_id": 31462,
        "name": "FENGYUN 1C DEB",
        "group": "fengyun-1c-debris",
        "lat": 16.891921174581476,
        "lon": 177.66838024163042,
        "alt_km": 842.4691113947756,
        "timestamp": "2025-12-02T07:10:09.397882+00:00",
        "meta_object_name": "FENGYUN 1C DEB",
        "meta_object_id": "1999-025BVA",
        "meta_epoch": "2025-12-01T12:26:00.233664",
        "meta_mean_motion": 14.12988365,
        "meta_eccentricity": 0.00314859,
        "meta_inclination": 98.6906,
        "meta_ra_of_asc_node": 354.2485,
        "meta_arg_of_pericenter": 236.8401,
        "meta_mean_anomaly": 277.4849,
        "meta_ephemeris_type": 0,
        "meta_classification_type": "U",
        "meta_norad_cat_id": 31462,
        "meta_element_set_no": 999,
        "meta_rev_at_epoch": 95697,
        "meta_bstar": 0.00039554017,
        "meta_mean_motion_dot": 6.98e-06,
        "meta_mean_motion_ddot": 0,
        "tle_line1": "1 31462U 99025BVA 25335.51805826  .00000698  00000+0  39554-3 0  9995",
        "tle_line2": "2 31462  98.6906 354.2485 0031485 236.8401 277.4849 14.12988365956976"
      },
      "geometry": {
        "type": "Point",
        "coordinates": [
          177.66838024163042,
          16.891921174581476
        ]
      }
    },
    {
      "type": "Feature",
      "properties": {
        "norad_id": 31463,
        "name": "FENGYUN 1C DEB",
        "group": "fengyun-1c-debris",
        "lat": -50.89379545524179,
        "lon": -31.243928618650322,
        "alt_km": 854.5078785386204,
        "timestamp": "2025-12-02T07:10:09.397894+00:00",
        "meta_object_name": "FENGYUN 1C DEB",
        "meta_object_id": "1999-025BVB",
        "meta_epoch": "2025-12-01T16:22:11.547840",
        "meta_mean_motion": 14.36878903,
        "meta_eccentricity": 0.0214137,
        "meta_inclination": 99.0794,
        "meta_ra_of_asc_node": 316.76,
        "meta_arg_of_pericenter": 72.118,
        "meta_mean_anomaly": 290.3231,
        "meta_ephemeris_type": 0,
        "meta_classification_type": "U",
        "meta_norad_cat_id": 31463,
        "meta_element_set_no": 999,
        "meta_rev_at_epoch": 64561,
        "meta_bstar": 0.00046326,
        "meta_mean_motion_dot": 1.728e-05,
        "meta_mean_motion_ddot": 0,
        "tle_line1": "1 31463U 99025BVB 25335.68207810  .00001728  00000+0  46326-3 0  9993",
        "tle_line2": "2 31463  99.0794 316.7600 0214137  72.1180 290.3231 14.36878903645618"
      },
      "geometry": {
        "type": "Point",
        "coordinates": [
          -31.243928618650322,
          -50.89379545524179
        ]
      }
    }
  ]
}